start=new Date('2022-05-23T00:00:00.000Z').valueOf();
sats=[{"ARG_OF_PERICENTER":"36.3722","INCLINATION":"53.0541","EPOCH":"2022-05-22T18:18:39.728448","LAUNCH_DATE":"2021-02-16","OBJECT_TYPE":"PAYLOAD","PERIOD":"95.593","MEAN_MOTION_DDOT":"0.0000000000000","ECCENTRICITY":"0.00022510","MEAN_ELEMENT_THEORY":"SGP4","RCS_SIZE":"LARGE","FILE":"3459268","MEAN_MOTION_DOT":"0.00000046","REV_AT_EPOCH":"7121","COUNTRY_CODE":"US","TLE_LINE2":"2 47653  53.0541 157.7671 0002251  36.3722 323.7420 15.06388237 71217","RA_OF_ASC_NODE":"157.7671","EPHEMERIS_TYPE":"0","CLASSIFICATION_TYPE":"U","REF_FRAME":"TEME","PERIAPSIS":"545.691","SEMIMAJOR_AXIS":"6925.385","ELEMENT_SET_NO":"999","BSTAR":"0.00002201300000","DECAY_DATE":null,"APOAPSIS":"548.809","MEAN_ANOMALY":"323.7420","OBJECT_NAME":"STARLINK-2037","MEAN_MOTION":"15.06388237","NORAD_CAT_ID":"47653","TIME_SYSTEM":"UTC","SITE":"AFETR","TLE_LINE1":"1 47653U 21012AK  22142.76295982  .00000046  00000-0  22013-4 0  9992","OBJECT_ID":"2021-012AK","GP_ID":"204280725","CENTER_NAME":"EARTH"},{"PERIOD":"95.592","MEAN_MOTION_DDOT":"0.0000000000000","ECCENTRICITY":"0.00018550","OBJECT_TYPE":"PAYLOAD","LAUNCH_DATE":"2021-02-16","MEAN_ELEMENT_THEORY":"SGP4","ARG_OF_PERICENTER":"41.6457","EPOCH":"2022-05-22T12:09:44.040672","INCLINATION":"53.0535","CLASSIFICATION_TYPE":"U","REF_FRAME":"TEME","PERIAPSIS":"545.918","TLE_LINE2":"2 47654  53.0535 178.9267 0001855  41.6457 318.4673 15.06403542 70903","COUNTRY_CODE":"US","MEAN_MOTION_DOT":"0.00000718","FILE":"3458680","REV_AT_EPOCH":"7090","RCS_SIZE":"LARGE","EPHEMERIS_TYPE":"0","RA_OF_ASC_NODE":"178.9267","MEAN_MOTION":"15.06403542","TIME_SYSTEM":"UTC","NORAD_CAT_ID":"47654","ELEMENT_SET_NO":"999","SEMIMAJOR_AXIS":"6925.338","MEAN_ANOMALY":"318.4673","OBJECT_NAME":"STARLINK-2038","BSTAR":"0.00006712500000","DECAY_DATE":null,"APOAPSIS":"548.487","OBJECT_ID":"2021-012AL","CENTER_NAME":"EARTH","GP_ID":"204242086","TLE_LINE1":"1 47654U 21012AL  22142.50675973  .00000718  00000-0  67125-4 0  9996","SITE":"AFETR"},{"CLASSIFICATION_TYPE":"U","PERIAPSIS":"546.022","REF_FRAME":"TEME","TLE_LINE2":"2 47655  53.0549 177.4762 0001734  49.2183 310.8956 15.06397113 70950","COUNTRY_CODE":"US","FILE":"3459268","REV_AT_EPOCH":"7095","MEAN_MOTION_DOT":"-0.00000993","RCS_SIZE":"LARGE","EPHEMERIS_TYPE":"0","RA_OF_ASC_NODE":"177.4762","MEAN_MOTION_DDOT":"0.0000000000000","PERIOD":"95.592","ECCENTRICITY":"0.00017340","OBJECT_TYPE":"PAYLOAD","LAUNCH_DATE":"2021-02-16","MEAN_ELEMENT_THEORY":"SGP4","ARG_OF_PERICENTER":"49.2183","INCLINATION":"53.0549","EPOCH":"2022-05-22T19:56:49.393536","OBJECT_ID":"2021-012AM","CENTER_NAME":"EARTH","GP_ID":"204281719","TLE_LINE1":"1 47655U 21012AM  22142.83112724 -.00000993  00000-0 -47788-4 0  9993","SITE":"AFETR","MEAN_MOTION":"15.06397113","TIME_SYSTEM":"UTC","NORAD_CAT_ID":"47655","ELEMENT_SET_NO":"999","SEMIMAJOR_AXIS":"6925.357","OBJECT_NAME":"STARLINK-2039","MEAN_ANOMALY":"310.8956","APOAPSIS":"548.423","DECAY_DATE":null,"BSTAR":"-0.00004778800000"},{"MEAN_MOTION":"15.06400524","TIME_SYSTEM":"UTC","NORAD_CAT_ID":"47656","ELEMENT_SET_NO":"999","SEMIMAJOR_AXIS":"6925.347","MEAN_ANOMALY":"322.7801","OBJECT_NAME":"STARLINK-2040","BSTAR":"0.00006132100000","DECAY_DATE":null,"APOAPSIS":"549.502","OBJECT_ID":"2021-012AN","CENTER_NAME":"EARTH","GP_ID":"204279976","TLE_LINE1":"1 47656U 21012AN  22142.78138021  .00000631  00000-0  61321-4 0  9992","SITE":"AFETR","PERIOD":"95.592","ECCENTRICITY":"0.00033070","MEAN_MOTION_DDOT":"0.0000000000000","OBJECT_TYPE":"PAYLOAD","LAUNCH_DATE":"2021-02-16","MEAN_ELEMENT_THEORY":"SGP4","ARG_OF_PERICENTER":"37.3417","EPOCH":"2022-05-22T18:45:11.250144","INCLINATION":"53.0544","CLASSIFICATION_TYPE":"U","REF_FRAME":"TEME","PERIAPSIS":"544.922","COUNTRY_CODE":"US","TLE_LINE2":"2 47656  53.0544 157.6998 0003307  37.3417 322.7801 15.06400524 71226","MEAN_MOTION_DOT":"0.00000631","FILE":"3459268","REV_AT_EPOCH":"7122","RCS_SIZE":"LARGE","EPHEMERIS_TYPE":"0","RA_OF_ASC_NODE":"157.6998"},{"EPHEMERIS_TYPE":"0","RA_OF_ASC_NODE":"177.6806","COUNTRY_CODE":"US","TLE_LINE2":"2 47657  53.0549 177.6806 0001949  61.1476 298.9708 15.06341669 70944","FILE":"3459268","REV_AT_EPOCH":"7094","MEAN_MOTION_DOT":"0.00012741","RCS_SIZE":"LARGE","REF_FRAME":"TEME","PERIAPSIS":"546.043","CLASSIFICATION_TYPE":"U","EPOCH":"2022-05-22T18:53:09.530304","INCLINATION":"53.0549","ARG_OF_PERICENTER":"61.1476","MEAN_ELEMENT_THEORY":"SGP4","MEAN_MOTION_DDOT":"0.0000000000000","PERIOD":"95.596","ECCENTRICITY":"0.00019490","OBJECT_TYPE":"PAYLOAD","LAUNCH_DATE":"2021-02-16","TLE_LINE1":"1 47657U 21012AP  22142.78691586  .00012741  00000-0  87406-3 0  9999","SITE":"AFETR","CENTER_NAME":"EARTH","GP_ID":"204280226","OBJECT_ID":"2021-012AP","MEAN_ANOMALY":"298.9708","OBJECT_NAME":"STARLINK-2041","DECAY_DATE":null,"BSTAR":"0.00087406000000","APOAPSIS":"548.742","ELEMENT_SET_NO":"999","SEMIMAJOR_AXIS":"6925.527","TIME_SYSTEM":"UTC","NORAD_CAT_ID":"47657","MEAN_MOTION":"15.06341669"},{"EPHEMERIS_TYPE":"0","RA_OF_ASC_NODE":"178.5986","COUNTRY_CODE":"US","TLE_LINE2":"2 47658  53.0549 178.5986 0001661  64.8153 295.3008 15.06399941 70936","FILE":"3459268","REV_AT_EPOCH":"7093","MEAN_MOTION_DOT":"0.00001274","RCS_SIZE":"LARGE","PERIAPSIS":"546.063","REF_FRAME":"TEME","CLASSIFICATION_TYPE":"U","EPOCH":"2022-05-22T13:55:53.212800","INCLINATION":"53.0549","ARG_OF_PERICENTER":"64.8153","MEAN_ELEMENT_THEORY":"SGP4","PERIOD":"95.592","MEAN_MOTION_DDOT":"0.0000000000000","ECCENTRICITY":"0.00016610","OBJECT_TYPE":"PAYLOAD","LAUNCH_DATE":"2021-02-16","TLE_LINE1":"1 47658U 21012AQ  22142.58047700  .00001274  00000-0  10440-3 0  9994","SITE":"AFETR","CENTER_NAME":"EARTH","GP_ID":"204280975","OBJECT_ID":"2021-012AQ","OBJECT_NAME":"STARLINK-2042","MEAN_ANOMALY":"295.3008","DECAY_DATE":null,"BSTAR":"0.00010440000000","APOAPSIS":"548.364","ELEMENT_SET_NO":"999","SEMIMAJOR_AXIS":"6925.349","TIME_SYSTEM":"UTC","NORAD_CAT_ID":"47658","MEAN_MOTION":"15.06399941"},{"TLE_LINE1":"1 47659U 21012AR  22142.91668981 -.00020966  00000-0 -13925-2 0  9993","SITE":"AFETR","OBJECT_ID":"2021-012AR","CENTER_NAME":"EARTH","GP_ID":"204281221","ELEMENT_SET_NO":"999","SEMIMAJOR_AXIS":"6925.328","OBJECT_NAME":"STARLINK-2043","MEAN_ANOMALY":"170.3033","DECAY_DATE":null,"APOAPSIS":"548.289","BSTAR":"-0.00139250000000","MEAN_MOTION":"15.06406801","TIME_SYSTEM":"UTC","NORAD_CAT_ID":"47659","TLE_LINE2":"2 47659  53.0548  57.0930 0001583  74.1038 170.3033 15.06406801  1304","COUNTRY_CODE":"US","REV_AT_EPOCH":"130","FILE":"3459268","MEAN_MOTION_DOT":"-0.00020966","RCS_SIZE":"LARGE","EPHEMERIS_TYPE":"0","RA_OF_ASC_NODE":"57.0930","CLASSIFICATION_TYPE":"U","REF_FRAME":"TEME","PERIAPSIS":"546.096","ARG_OF_PERICENTER":"74.1038","INCLINATION":"53.0548","EPOCH":"2022-05-22T22:00:01.999584","MEAN_MOTION_DDOT":"0.0000000000000","PERIOD":"95.592","ECCENTRICITY":"0.00015830","OBJECT_TYPE":"PAYLOAD","LAUNCH_DATE":"2021-02-16","MEAN_ELEMENT_THEORY":"SGP4"},{"EPHEMERIS_TYPE":"0","RA_OF_ASC_NODE":"47.3143","COUNTRY_CODE":"US","TLE_LINE2":"2 47660  53.0560  47.3143 0001773  57.3123 288.8638 15.03934591  1302","RCS_SIZE":"LARGE","REV_AT_EPOCH":"130","FILE":"3459268","MEAN_MOTION_DOT":"-0.00011139","REF_FRAME":"TEME","PERIAPSIS":"553.551","CLASSIFICATION_TYPE":"U","EPOCH":"2022-05-22T22:00:01.999584","INCLINATION":"53.0560","ARG_OF_PERICENTER":"57.3123","MEAN_ELEMENT_THEORY":"SGP4","OBJECT_TYPE":"PAYLOAD","PERIOD":"95.749","MEAN_MOTION_DDOT":"0.0000000000000","ECCENTRICITY":"0.00017730","LAUNCH_DATE":"2021-02-16","TLE_LINE1":"1 47660U 21012AS  22142.91668981 -.00011139  00000-0 -78045-3 0  9992","SITE":"AFETR","CENTER_NAME":"EARTH","GP_ID":"204280476","OBJECT_ID":"2021-012AS","APOAPSIS":"556.009","DECAY_DATE":null,"BSTAR":"-0.00078045000000","OBJECT_NAME":"STARLINK-2044","MEAN_ANOMALY":"288.8638","SEMIMAJOR_AXIS":"6932.915","ELEMENT_SET_NO":"999","TIME_SYSTEM":"UTC","NORAD_CAT_ID":"47660","MEAN_MOTION":"15.03934591"},{"TLE_LINE1":"1 47661U 21012AT  22142.74450348  .00001480  00000-0  11824-3 0  9998","SITE":"AFETR","OBJECT_ID":"2021-012AT","CENTER_NAME":"EARTH","GP_ID":"204280726","SEMIMAJOR_AXIS":"6925.335","ELEMENT_SET_NO":"999","APOAPSIS":"548.546","DECAY_DATE":null,"BSTAR":"0.00011824000000","MEAN_ANOMALY":"310.0035","OBJECT_NAME":"STARLINK-2051","MEAN_MOTION":"15.06404414","TIME_SYSTEM":"UTC","NORAD_CAT_ID":"47661","COUNTRY_CODE":"US","TLE_LINE2":"2 47661  53.0540 157.8610 0001943  50.1124 310.0035 15.06404414 71202","RCS_SIZE":"LARGE","REV_AT_EPOCH":"7120","FILE":"3459268","MEAN_MOTION_DOT":"0.00001480","EPHEMERIS_TYPE":"0","RA_OF_ASC_NODE":"157.8610","CLASSIFICATION_TYPE":"U","REF_FRAME":"TEME","PERIAPSIS":"545.854","ARG_OF_PERICENTER":"50.1124","INCLINATION":"53.0540","EPOCH":"2022-05-22T17:52:05.100672","OBJECT_TYPE":"PAYLOAD","PERIOD":"95.592","ECCENTRICITY":"0.00019430","MEAN_MOTION_DDOT":"0.0000000000000","LAUNCH_DATE":"2021-02-16","MEAN_ELEMENT_THEORY":"SGP4"},{"CLASSIFICATION_TYPE":"U","REF_FRAME":"TEME","PERIAPSIS":"545.754","REV_AT_EPOCH":"7116","FILE":"3458680","MEAN_MOTION_DOT":"0.00002025","RCS_SIZE":"LARGE","TLE_LINE2":"2 47662  53.0539 159.7371 0002091  41.8546 318.2603 15.06403581 71166","COUNTRY_CODE":"US","RA_OF_ASC_NODE":"159.7371","EPHEMERIS_TYPE":"0","LAUNCH_DATE":"2021-02-16","PERIOD":"95.592","ECCENTRICITY":"0.00020910","MEAN_MOTION_DDOT":"0.0000000000000","OBJECT_TYPE":"PAYLOAD","MEAN_ELEMENT_THEORY":"SGP4","ARG_OF_PERICENTER":"41.8546","INCLINATION":"53.0539","EPOCH":"2022-05-22T07:50:57.683328","OBJECT_ID":"2021-012AU","GP_ID":"204242087","CENTER_NAME":"EARTH","SITE":"AFETR","TLE_LINE1":"1 47662U 21012AU  22142.32705652  .00002025  00000-0  15483-3 0  9995","MEAN_MOTION":"15.06403581","NORAD_CAT_ID":"47662","TIME_SYSTEM":"UTC","ELEMENT_SET_NO":"999","SEMIMAJOR_AXIS":"6925.338","OBJECT_NAME":"STARLINK-2052","MEAN_ANOMALY":"318.2603","DECAY_DATE":null,"APOAPSIS":"548.651","BSTAR":"0.00015483000000"}];
